OBJECT_NAME,OBJECT_ID,EPOCH,MEAN_MOTION,ECCENTRICITY,INCLINATION,RA_OF_ASC_NODE,ARG_OF_PERICENTER,MEAN_ANOMALY,EPHEMERIS_TYPE,CLASSIFICATION_TYPE,NORAD_CAT_ID,ELEMENT_SET_NO,REV_AT_EPOCH,BSTAR,MEAN_MOTION_DOT,MEAN_MOTION_DDOT
JILIN-1 GAOFEN 3A,2019-032C,2026-06-09T14:08:31.506720,15.32465697,.00064898,44.9760,38.7473,259.1592,100.8563,0,U,44312,999,38667,.34553257E-3,.10754E-3,0
WT 1B,2019-032G,2026-06-09T13:06:19.884672,15.27035798,.00092911,44.9731,102.6421,209.9703,150.0648,0,U,44316,999,38591,.34573049E-3,.9069E-4,0
PROX-1,2019-036A,2026-06-09T08:36:11.028672,14.90423822,.00053706,23.9928,166.5423,302.8767,57.1216,0,U,44339,999,37230,.10884882E-2,.1116E-3,0
NPSAT1,2019-036B,2026-06-08T23:55:08.403456,14.74509476,.00079025,23.9995,271.1035,114.6467,245.4852,0,U,44340,999,37128,.60956846E-3,.4393E-4,0
FORMOSAT 7-3,2019-036E,2026-06-09T12:25:02.578080,15.09750740,.00008879,23.9985,231.3301,150.2032,209.8522,0,U,44343,999,38208,.2101684E-3,.3827E-4,0
FORMOSAT 7-1,2019-036L,2026-06-09T10:41:41.039232,14.96472068,.00010238,23.9980,84.5814,90.4732,269.5886,0,U,44349,999,38349,.18359906E-3,.2438E-4,0
FORMOSAT 7-4,2019-036M,2026-06-09T06:25:56.690400,14.96465427,.0001512,23.9968,147.8868,99.2720,260.7952,0,U,44350,999,38288,.16586E-3,.2232E-4,0
FORMOSAT 7-2,2019-036N,2026-06-09T10:10:09.909984,14.96469029,.00010422,23.9972,201.1555,96.3518,263.7102,0,U,44351,999,38242,.15447227E-3,.2099E-4,0
FORMOSAT 7-6,2019-036Q,2026-06-09T06:57:52.027200,14.96476149,.00011921,23.9992,22.8667,20.8011,339.2538,0,U,44353,999,38063,.18482202E-3,.2452E-4,0
FORMOSAT 7-5,2019-036V,2026-06-09T03:13:08.224608,14.96483180,.00006988,23.9999,322.6713,79.6264,280.4315,0,U,44358,999,38114,.19108376E-3,.2525E-4,0
METEOR-M2 2,2019-038A,2026-06-09T14:06:29.085696,14.24364332,.00022906,98.9146,147.7612,59.3153,300.8251,0,U,44387,999,36021,.13116355E-3,.257E-5,0
GLOBAL-4,2019-054E,2026-06-09T12:59:37.004928,15.63667726,.00064749,45.0063,280.4950,292.7064,67.3149,0,U,44499,999,37916,.48532389E-3,.4626E-3,0
ZY-1 02D,2019-059A,2026-06-09T14:39:46.118016,14.35458334,.00022469,98.3188,222.3642,117.5686,242.5729,0,U,44528,999,35325,.11721878E-3,.295E-5,0
TAURUS-1 (JINNIUZUO 1),2019-059C,2026-06-09T13:29:07.833408,14.72018496,.00077184,98.6415,324.9178,343.2500,16.8449,0,U,44530,999,35752,.90585676E-3,.5638E-4,0
ZHUHAI-1 03B,2019-060C,2026-06-09T14:01:40.537344,15.53665249,.000783,97.5520,317.9426,349.0502,11.0579,0,U,44536,999,37514,.43017658E-3,.27459E-3,0
ZHUHAI-1 03D,2019-060E,2026-06-09T16:02:14.015328,15.49325359,.00068298,97.5382,310.2181,331.8526,28.2355,0,U,44538,999,37491,.49072993E-3,.26837E-3,0
ZHUHAI-1 03E,2019-060F,2026-06-09T13:56:34.454112,15.40819368,.00065145,97.5602,310.2668,58.4549,301.7332,0,U,44539,999,37459,.38226213E-3,.15603E-3,0
GAOFEN-7,2019-072A,2026-06-09T15:15:42.752736,15.21544272,.00179374,97.2432,222.3861,65.3986,294.9117,0,U,44703,999,36649,.16779622E-3,.3728E-4,0
JILIN-1 GAOFEN 2A,2019-075A,2026-06-09T12:41:36.228192,15.39110530,.00076539,97.4962,244.1411,109.7624,250.4447,0,U,44777,999,36370,.35244318E-3,.13594E-3,0
NINGXIA-1 1,2019-076A,2026-06-09T15:04:40.808640,14.02037499,.00102405,45.0041,213.6324,125.9810,234.1974,0,U,44779,999,33679,.16397243E-4,-.105E-5,0
NINGXIA-1 5,2019-076E,2026-06-09T13:41:35.055168,14.02085768,.00098312,45.0041,213.2344,114.4488,245.7373,0,U,44783,999,33670,.581605E-4,-.4E-6,0
KL-ALPHA A,2019-077A,2026-06-09T14:15:07.678368,13.56042681,.00128979,88.9253,223.3947,124.7552,235.4819,0,U,44785,999,32470,.86140336E-4,.73E-6,0
CARTOSAT-3,2019-081A,2026-06-09T15:34:21.333792,15.19230839,.0012429,97.4307,222.6372,173.7748,186.3643,0,U,44804,999,36232,.23841452E-3,.4964E-4,0
JILIN-1 GAOFEN 2B,2019-086A,2026-06-09T12:20:21.181056,15.20626922,.00135332,97.4882,232.5535,352.9192,7.1850,0,U,44836,999,35932,.23212289E-3,.5033E-4,0
TIANQIN 1 (CAS-6),2019-093A,2026-06-09T14:16:53.939136,14.95406506,.00129083,97.7808,244.4904,80.4364,279.8315,0,U,44879,999,35091,.30058656E-3,.3268E-4,0
ETRSS-1,2019-093B,2026-06-09T14:29:50.613792,14.95830990,.00129475,97.7826,244.9525,80.3945,279.8739,0,U,44880,999,35092,.2386322E-3,.2611E-4,0
TIANYAN 01,2019-093C,2026-06-09T15:22:04.658016,14.86510564,.00149759,97.7529,233.0564,109.0061,251.2779,0,U,44881,999,35029,.159867E-3,.1364E-4,0
TIANYAN 02,2019-093D,2026-06-09T14:34:42.883392,15.05134997,.00144488,97.7929,255.3251,53.0259,307.2287,0,U,44882,999,35147,.45776716E-3,.6472E-4,0
