JILIN-1 GAOFEN 3A       
1 44312U 19032C   26160.58925355  .00010754  00000+0  34553-3 0  9995
2 44312  44.9760  38.7473 0006489 259.1592 100.8563 15.32465697386679
WT 1B                   
1 44316U 19032G   26160.54606348  .00009069  00000+0  34573-3 0  9992
2 44316  44.9731 102.6421 0009291 209.9703 150.0648 15.27035798385912
PROX-1                  
1 44339U 19036A   26160.35846098  .00011160  00000+0  10885-2 0  9992
2 44339  23.9928 166.5423 0005370 302.8767  57.1216 14.90423822372305
NPSAT1                  
1 44340U 19036B   26159.99662504  .00004393  00000+0  60957-3 0  9996
2 44340  23.9995 271.1035 0007902 114.6467 245.4852 14.74509476371288
FORMOSAT 7-3            
1 44343U 19036E   26160.51739095  .00003827  00000+0  21017-3 0  9994
2 44343  23.9985 231.3301 0000887 150.2032 209.8522 15.09750740382082
FORMOSAT 7-1            
1 44349U 19036L   26160.44561388  .00002438  00000+0  18360-3 0  9994
2 44349  23.9980  84.5814 0001023  90.4732 269.5886 14.96472068383496
FORMOSAT 7-4            
1 44350U 19036M   26160.26801725  .00002232  00000+0  16586-3 0  9998
2 44350  23.9968 147.8868 0001512  99.2720 260.7952 14.96465427382883
FORMOSAT 7-2            
1 44351U 19036N   26160.42372581  .00002099  00000+0  15447-3 0  9996
2 44351  23.9972 201.1555 0001042  96.3518 263.7102 14.96469029382429
FORMOSAT 7-6            
1 44353U 19036Q   26160.29018550  .00002452  00000+0  18482-3 0  9991
2 44353  23.9992  22.8667 0001192  20.8011 339.2538 14.96476149380635
FORMOSAT 7-5            
1 44358U 19036V   26160.13412297  .00002525  00000+0  19108-3 0  9992
2 44358  23.9999 322.6713 0000698  79.6264 280.4315 14.96483180381142
METEOR-M2 2             
1 44387U 19038A   26160.58783664  .00000257  00000+0  13116-3 0  9997
2 44387  98.9146 147.7612 0002290  59.3153 300.8251 14.24364332360215
GLOBAL-4                
1 44499U 19054E   26160.54140052  .00046260  00000+0  48532-3 0  9997
2 44499  45.0063 280.4950 0006474 292.7064  67.3149 15.63667726379164
ZY-1 02D                
1 44528U 19059A   26160.61095044  .00000295  00000+0  11722-3 0  9992
2 44528  98.3188 222.3642 0002246 117.5686 242.5729 14.35458334353250
TAURUS-1 (JINNIUZUO 1)  
1 44530U 19059C   26160.56189622  .00005638  00000+0  90586-3 0  9996
2 44530  98.6415 324.9178 0007718 343.2500  16.8449 14.72018496357521
ZHUHAI-1 03B            
1 44536U 19060C   26160.58449696  .00027459  00000+0  43018-3 0  9999
2 44536  97.5520 317.9426 0007830 349.0502  11.0579 15.53665249375144
ZHUHAI-1 03D            
1 44538U 19060E   26160.66821777  .00026837  00000+0  49073-3 0  9990
2 44538  97.5382 310.2181 0006829 331.8526  28.2355 15.49325359374914
ZHUHAI-1 03E            
1 44539U 19060F   26160.58095433  .00015603  00000+0  38226-3 0  9991
2 44539  97.5602 310.2668 0006514  58.4549 301.7332 15.40819368374595
GAOFEN-7                
1 44703U 19072A   26160.63591149  .00003728  00000+0  16780-3 0  9994
2 44703  97.2432 222.3861 0017937  65.3986 294.9117 15.21544272366499
JILIN-1 GAOFEN 2A       
1 44777U 19075A   26160.52889153  .00013594  00000+0  35244-3 0  9999
2 44777  97.4962 244.1411 0007653 109.7624 250.4447 15.39110530363708
NINGXIA-1 1             
1 44779U 19076A   26160.62825010 -.00000105  00000+0  16397-4 0  9999
2 44779  45.0041 213.6324 0010240 125.9810 234.1974 14.02037499336798
NINGXIA-1 5             
1 44783U 19076E   26160.57054462 -.00000040  00000+0  58161-4 0  9996
2 44783  45.0041 213.2344 0009831 114.4488 245.7373 14.02085768336703
KL-ALPHA A              
1 44785U 19077A   26160.59383887  .00000073  00000+0  86140-4 0  9990
2 44785  88.9253 223.3947 0012897 124.7552 235.4819 13.56042681324702
CARTOSAT-3              
1 44804U 19081A   26160.64885803  .00004964  00000+0  23841-3 0  9999
2 44804  97.4307 222.6372 0012429 173.7748 186.3643 15.19230839362329
JILIN-1 GAOFEN 2B       
1 44836U 19086A   26160.51413404  .00005033  00000+0  23212-3 0  9999
2 44836  97.4882 232.5535 0013533 352.9192   7.1850 15.20626922359324
TIANQIN 1 (CAS-6)       
1 44879U 19093A   26160.59506874  .00003268  00000+0  30059-3 0  9991
2 44879  97.7808 244.4904 0012908  80.4364 279.8315 14.95406506350918
ETRSS-1                 
1 44880U 19093B   26160.60405803  .00002611  00000+0  23863-3 0  9991
2 44880  97.7826 244.9525 0012947  80.3945 279.8739 14.95830990350920
TIANYAN 01              
1 44881U 19093C   26160.64033169  .00001364  00000+0  15987-3 0  9990
2 44881  97.7529 233.0564 0014975 109.0061 251.2779 14.86510564350294
TIANYAN 02              
1 44882U 19093D   26160.60744078  .00006472  00000+0  45777-3 0  9990
2 44882  97.7929 255.3251 0014448  53.0259 307.2287 15.05134997351472
